SAMSAT-IONOSPHERE (RS7*)
1 61784U 24199BB  26072.93226933  .00045924  00000+0  81919-3 0  9999
2 61784  97.3119 307.0513 0008425 274.2477  85.7812 15.49906863122770
RTU MIREA 1 (RS51S)     
1 61785U 24199BC  26072.92485999  .00049942  00000+0  83020-3 0  9997
2 61785  97.3118 307.5009 0008320 269.5625  90.4674 15.51882458119659
TEVEL2-4                
1 63213U 25052D   26072.94244397  .00022661  00000+0  75480-3 0  9991
2 63213  97.4016 329.3616 0004809  87.4282 272.7510 15.31116100 55526
TEVEL2-5                
1 63214U 25052E   26072.95373556  .00021913  00000+0  73283-3 0  9991
2 63214  97.4014 329.3446 0004731  87.9686 272.2097 15.30992820 55528
TEVEL2-6                
1 63215U 25052F   26072.50614614  .00023745  00000+0  79517-3 0  9997
2 63215  97.4018 328.8842 0004892  88.9740 271.2062 15.30932507 55456
TEVEL2-1                
1 63217U 25052H   26072.24391945  .00019218  00000+0  65313-3 0  9998
2 63217  97.3991 328.3512 0004870  99.0664 261.1128 15.30497635 55404
TEVEL2-3                
1 63218U 25052J   26072.24141467  .00019121  00000+0  64913-3 0  9999
2 63218  97.3992 328.3604 0004931  98.7892 261.3908 15.30533668 55400
TEVEL2-2                
1 63219U 25052K   26072.63685425  .00022870  00000+0  77595-3 0  9995
2 63219  97.3990 328.7439 0004895  98.1267 262.0529 15.30516952 55468
TEVEL2-9                
1 63237U 25052AD  26072.95695402  .00019252  00000+0  68874-3 0  9996
2 63237  97.4060 328.6244 0008270 112.6709 247.5406 15.28803361 55466
TEVEL2-7                
1 63238U 25052AE  26072.52363088  .00020183  00000+0  72702-3 0  9992
2 63238  97.4058 328.1448 0008354 113.8057 246.4060 15.28566839 55399
TEVEL2-8                
1 63239U 25052AF  26072.20338630  .00017293  00000+0  62423-3 0  9990
2 63239  97.4057 327.8070 0008302 115.1166 245.0936 15.28530922 55341
HADES-ICM               
1 63492U 25052BN  26072.68106932  .00170959  00000+0  22260-2 0  9994
2 63492  97.3932 333.2766 0009231 103.5078 256.7207 15.58119630 55769
INNOSAT 16 (RS92S7)     
1 64878U 25155C   26072.91819144  .00008612  00000+0  35510-3 0  9998
2 64878  97.4464  40.4882 0011504 151.5923 208.5944 15.24254527 66159
GEOSCAN 6 (RS92S6)      
1 64879U 25155D   26072.97165510  .00013724  00000+0  50264-3 0  9999
2 64879  97.4464  41.3493 0009301 141.5175 218.6729 15.28098840 66216
GEOSCAN 1 (RS92S1)      
1 64880U 25155E   26072.94077795  .00013701  00000+0  49532-3 0  9996
2 64880  97.4461  41.3951 0009183 141.6188 218.5706 15.28526308 66216
239ALFEROV (RS61S)      
1 64881U 25155F   26072.96220171  .00018698  00000+0  64312-3 0  9990
2 64881  97.4466  41.7005 0008964 139.6621 220.5286 15.30087602 66231
GEOSCAN 2 (RS92S2)      
1 64890U 25155Q   26072.95229736  .00014234  00000+0  50978-3 0  9990
2 64890  97.4460  41.5191 0008962 129.7442 230.4589 15.28829414 66225
GEOSCAN 5 (RS92S5)      
1 64891U 25155R   26072.97143602  .00019016  00000+0  64754-3 0  9990
2 64891  97.4459  41.8097 0007634 142.8493 217.3278 15.30420436 66244
GEOSCAN 4 (RS92S4)      
1 64892U 25155S   26072.96352638  .00019221  00000+0  65238-3 0  9997
2 64892  97.4461  41.8271 0007627 143.1226 217.0540 15.30525290 66245
GEOSCAN 3 (RS92S3)      
1 64893U 25155T   26072.93773723  .00023772  00000+0  77266-3 0  9997
2 64893  97.4452  42.0005 0007315 143.0618 217.1129 15.31881731 66253
INNOSAT 3 (RS92S0)      
1 64894U 25155U   26072.95661652  .00040869  00000+0  11245-2 0  9997
2 64894  97.4422  42.7002 0007226 137.0364 223.1445 15.37039927 66309
